[{"OBJECT_NAME":"STARLINK-31698","OBJECT_ID":"2024-062F","EPOCH":"2026-03-09T19:58:40.732032","MEAN_MOTION":15.30183968,"ECCENTRICITY":0.00012569,"INCLINATION":53.1603,"RA_OF_ASC_NODE":254.9886,"ARG_OF_PERICENTER":88.3549,"MEAN_ANOMALY":271.7596,"EPHEMERIS_TYPE":0,"CLASSIFICATION_TYPE":"U","NORAD_CAT_ID":59379,"ELEMENT_SET_NO":999,"REV_AT_EPOCH":10965,"BSTAR":9.91931e-6,"MEAN_MOTION_DOT":-6.5e-7,"MEAN_MOTION_DDOT":0},{"OBJECT_NAME":"TEVEL2-5","OBJECT_ID":"2025-052E","EPOCH":"2026-03-09T23:11:54.246048","MEAN_MOTION":15.30817434,"ECCENTRICITY":0.00047002,"INCLINATION":97.4013,"RA_OF_ASC_NODE":325.3677,"ARG_OF_PERICENTER":95.3936,"MEAN_ANOMALY":264.7842,"EPHEMERIS_TYPE":0,"CLASSIFICATION_TYPE":"U","NORAD_CAT_ID":63214,"ELEMENT_SET_NO":999,"REV_AT_EPOCH":5491,"BSTAR":0.00071764727,"MEAN_MOTION_DOT":0.00021339,"MEAN_MOTION_DDOT":0}]
