STARLINK-31698          
1 59379U 24062F   26068.83241588 -.00000065  00000+0  99193-5 0  9995
2 59379  53.1603 254.9886 0001256  88.3549 271.7596 15.30183968109658
TEVEL2-5                
1 63214U 25052E   26068.96660006  .00021339  00000+0  71765-3 0  9991
2 63214  97.4013 325.3677 0004700  95.3936 264.7842 15.30817434 54919
